STARLINK-31642          
1 59726U 24088U   24272.73973169  .00002719  00000+0  77927-4 0  9997
2 59726  53.1600  72.5188 0000879  87.8313 272.2792 15.39621189 22933
STARLINK-31827          
1 59727U 24088V   24272.86061223  .00001657  00000+0  51384-4 0  9990
2 59727  53.1603  71.8501 0000903  82.4913 277.6195 15.39618958 23075
STARLINK-31472          
1 59730U 24090A   24272.55227431 -.00000265  00000+0  91676-6 0  9993
2 59730  43.0010 296.7336 0000882 258.8687 101.2070 15.40678827 22634
STARLINK-31817          
1 59731U 24090B   24272.76243448  .00001680  00000+0  47505-4 0  9994
2 59731  43.0036 295.7311 0001720 273.8578  86.2082 15.40689082 22666
STARLINK-31841          
1 59732U 24090C   24272.91667824 -.00517250  00000+0 -10999-1 0  9991
2 59732  43.0013 292.9485 0000505 255.2315 306.8609 15.46146155  5927
STARLINK-31833          
1 59733U 24090D   24272.53881778  .00001963  00000+0  54245-4 0  9998
2 59733  43.0021 296.6316 0001507 254.2996 105.7694 15.40699041 22580
STARLINK-31849          
1 59734U 24090E   24272.77363350  .00001542  00000+0  44181-4 0  9997
2 59734  42.9998 295.8265 0001745 259.1791 100.8869 15.40688890 22666
STARLINK-31661          
1 59735U 24090F   24272.78034695  .00003275  00000+0  85612-4 0  9995
2 59735  43.0012 295.8764 0002168 264.2738  95.7872 15.40704433 22666
STARLINK-31707          
1 59736U 24090G   24272.36001448  .00000683  00000+0  23597-4 0  9994
2 59736  42.9995 297.8729 0000624 228.9967 131.0835 15.40690967 22607
STARLINK-31821          
1 59737U 24090H   24272.54554220  .00000363  00000+0  15963-4 0  9999
2 59737  43.0023 296.6806 0001696 241.3317 118.7369 15.40691683 22636
STARLINK-31819          
1 59738U 24090J   24272.35553335  .00001617  00000+0  45948-4 0  9994
2 59738  43.0002 297.8373 0000334 252.0002 108.0818 15.40695010 22600
STARLINK-31726          
1 59739U 24090K   24272.76467535  .00001877  00000+0  52216-4 0  9990
2 59739  43.0024 295.7505 0001608 263.7589  96.3084 15.40688369 22662
STARLINK-31759          
1 59740U 24090L   24272.79141796  .00001705  00000+0  48075-4 0  9991
2 59740  43.0022 295.0837 0001040 250.3767 109.6978 15.40692981 22679
STARLINK-31818          
1 59741U 24090M   24272.79590039  .00001514  00000+0  43507-4 0  9993
2 59741  43.0031 295.1155 0001520 251.1515 108.9177 15.40690023 22653
STARLINK-31816          
1 59742U 24090N   24272.77125835  .00000004  00000+0  73638-5 0  9992
2 59742  43.0039 294.9065 0002112 267.1609  92.9005 15.40686837 22658
STARLINK-31809          
1 59743U 24090P   24272.38914685  .00000686  00000+0  23686-4 0  9992
2 59743  42.9982 298.0994 0000791 282.0012  78.0756 15.40685737 22606
STARLINK-31779          
1 59744U 24090Q   24272.76019445  .00003376  00000+0  88080-4 0  9993
2 59744  42.9986 295.7188 0001325 264.6519  95.4187 15.40689490 22669
STARLINK-31805          
1 59745U 24090R   24272.76691333  .00001723  00000+0  48507-4 0  9990
2 59745  43.0000 295.7668 0001359 262.2741  97.7961 15.40694839 22668
STARLINK-31681          
1 59746U 24090S   24272.77587283  .00003970  00000+0  10224-3 0  9990
2 59746  43.0000 295.8364 0001628 263.9091  96.1580 15.40701889 22662
STARLINK-31636          
1 59747U 24090T   24272.75795556 -.00000526  00000+0 -53437-5 0  9994
2 59747  43.0019 295.6966 0001358 260.1985  99.8718 15.40688723 22664
STARLINK-31640          
1 59748U 24090U   24272.54105824 -.00000432  00000+0 -30713-5 0  9993
2 59748  43.0049 296.6441 0001836 269.3128  90.7518 15.40705285 22636
STARLINK-31677          
1 59749U 24090V   24272.79366068  .00001162  00000+0  35069-4 0  9997
2 59749  43.0023 295.0981 0000866 331.3708  28.7101 15.40693650 22661
STARLINK-31783          
1 59750U 24090W   24272.78469574 -.00003539  00000+0 -77495-4 0  9995
2 59750  43.0014 295.0295 0001291 259.6911 100.3800 15.40704565 22663
STARLINK-31808          
1 59751U 24090X   24272.76915561  .00001531  00000+0  43920-4 0  9990
2 59751  42.9999 295.7857 0001307 252.3658 107.7055 15.40688683 22655
STARLINK-31822          
1 59752U 24090Y   24272.49192365  .00001258  00000+0  37392-4 0  9992
2 59752  43.0039 297.1373 0001323 276.4363  83.6343 15.40677388 22629
STARLINK-11125 [DTC]    
1 59753U 24091A   24272.34227689  .00002815  00000+0  28054-4 0  9991
2 59753  53.1584 286.1913 0000745  85.1289 274.9814 15.69736820 22686
STARLINK-11118 [DTC]    
1 59754U 24091B   24272.34720868 -.00002363  00000+0 -14661-4 0  9998
2 59754  53.1562 286.2102 0001375  69.1882 290.9283 15.69693714 22687
STARLINK-11132 [DTC]    
1 59755U 24091C   24272.33736554  .00002372  00000+0  24401-4 0  9998
2 59755  53.1581 286.1443 0000967 108.9992 251.1131 15.69743529 22687
STARLINK-11131 [DTC]    
1 59756U 24091D   24272.33248105  .00011459  00000+0  99217-4 0  9992
2 59756  53.1570 286.1143 0001206  88.0255 272.0901 15.69732520 22686
STARLINK-11114 [DTC]    
1 59757U 24091E   24272.32757438  .00007436  00000+0  66110-4 0  9992
2 59757  53.1570 286.0997 0001013  83.6795 276.4338 15.69734586 22685
STARLINK-11105 [DTC]    
1 59758U 24091F   24272.76835727  .00002019  00000+0  21516-4 0  9992
2 59758  53.1571 283.8666 0000871 122.8972 237.2130 15.69713655 22756
STARLINK-11097 [DTC]    
1 59759U 24091G   24272.76346459 -.00002927  00000+0 -19318-4 0  9999
2 59759  53.1573 283.8164 0001809  90.2688 269.8537 15.69691342 22756
STARLINK-11098 [DTC]    
1 59760U 24091H   24272.75854433 -.00000503  00000+0  71373-6 0  9994
2 59760  53.1565 283.7845 0001570  96.8088 263.3108 15.69708405 22757
STARLINK-11117 [DTC]    
1 59761U 24091J   24272.75364167  .00002910  00000+0  28874-4 0  9994
2 59761  53.1568 283.7510 0001240  90.4985 269.6175 15.69710231 22753
STARLINK-11110 [DTC]    
1 59762U 24091K   24272.74874091  .00001414  00000+0  16536-4 0  9996
2 59762  53.1573 283.7151 0001522  93.5626 266.5566 15.69710077 22758
STARLINK-11104 [DTC]    
1 59763U 24091L   24272.74383893 -.00001982  00000+0 -11509-4 0  9999
2 59763  53.1573 283.6849 0001479 108.4275 251.6903 15.69696941 22752
STARLINK-11111 [DTC]    
1 59764U 24091M   24272.73402005  .00008331  00000+0  73538-4 0  9999
2 59764  53.1560 283.6197 0001353 100.6737 259.4433 15.69716095 22750
STARLINK-11106 [DTC]    
1 59765U 24091N   24272.73892863  .00000727  00000+0  10864-4 0  9999
2 59765  53.1565 283.6538 0001388  64.1548 295.9613 15.69708138 22751
STARLINK-31739          
1 59766U 24091P   24272.84680691  .00002259  00000+0  88409-4 0  9998
2 59766  53.1587 311.1006 0001335  92.2131 267.9023 15.30188259 22337
STARLINK-31828          
1 59767U 24091Q   24272.53564944  .00001959  00000+0  78310-4 0  9993
2 59767  53.1579 315.5456 0001456  78.0075 282.1089 15.30182517 22296
STARLINK-31826          
1 59768U 24091R   24272.53881217  .00004597  00000+0  16729-3 0  9995
2 59768  53.1575 315.5709 0001312 105.8045 254.3101 15.30190015 22299
STARLINK-31830          
1 59769U 24091S   24272.41134822 -.00002135  00000+0 -60031-4 0  9990
2 59769  53.1570 316.1965 0001279  89.7487 270.3661 15.30179987 22270
STARLINK-31829          
1 59770U 24091T   24272.40186096  .00000577  00000+0  31648-4 0  9999
2 59770  53.1588 316.1350 0001423  73.7891 286.3266 15.30172422 22277
STARLINK-31786          
1 59771U 24091U   24272.54620085  .00000724  00000+0  36588-4 0  9998
2 59771  53.1585 315.6130 0001253  83.6291 276.4852 15.30183214 22294
STARLINK-31835          
1 59772U 24091V   24272.85588825  .00002138  00000+0  84339-4 0  9996
2 59772  53.1579 313.9853 0001637 100.7979 259.3206 15.30189514 22349
STARLINK-31363          
1 59782U 24093A   24272.52226911  .00000213  00000+0  12360-4 0  9995
2 59782  43.0024 322.3252 0001583 274.3286  85.7390 15.40696872 21883
STARLINK-31868          
1 59783U 24093B   24272.42082656  .00006607  00000+0  16526-3 0  9991
2 59783  42.9995 319.7822 0000920 156.8840 203.2058 15.40702703 21908
STARLINK-31848          
1 59784U 24093C   24272.55601535  .00003612  00000+0  93717-4 0  9990
2 59784  43.0022 323.4903 0000872 276.6135  83.4622 15.40692773 21874
STARLINK-31890          
1 59785U 24093D   24272.55378490  .00003441  00000+0  89623-4 0  9993
2 59785  43.0023 323.4748 0001301 277.2843  82.7866 15.40688932 21856
STARLINK-31862          
1 59786U 24093E   24271.44720909 -.00001004  00000+0 -16776-4 0  9991
2 59786  43.0023 329.7884 0001119 263.4412  96.6317 15.40689225 21551
STARLINK-31870          
1 59787U 24093F   24272.55154727 -.00001590  00000+0 -30815-4 0  9994
2 59787  43.0023 323.4570 0001725 267.6486  92.4173 15.40690436 21870
STARLINK-31888          
1 59788U 24093G   24272.86896352  .00002733  00000+0  72701-4 0  9994
2 59788  43.0025 321.5340 0001421 229.4722 130.6010 15.40689986 21928
STARLINK-31863          
1 59789U 24093H   24272.41740193  .00001685  00000+0  47590-4 0  9990
2 59789  43.0026 324.1699 0000153 202.5615 157.5235 15.40688103 21859
STARLINK-31873          
1 59790U 24093J   24272.86672242 -.00003834  00000+0 -84578-4 0  9997
2 59790  42.9949 321.5178 0000719  60.7867 299.3061 15.40699092 21926
STARLINK-31865          
1 59791U 24093K   24272.86449043  .00009827  00000+0  24218-3 0  9999
2 59791  43.0006 321.5041 0000437  66.1684 293.9219 15.40704006 21923
STARLINK-31893          
1 59792U 24093L   24272.86223896  .00002479  00000+0  66611-4 0  9996
2 59792  43.0017 321.4817 0001683 255.3398 104.7272 15.40695808 21932
STARLINK-31901          
1 59793U 24093M   24272.91667824  .00056191  00000+0  10823-2 0  9998
2 59793  43.0055 319.9356 0001107 286.1431 167.7803 15.47063730  5960
STARLINK-31823          
1 59794U 24093N   24272.85776710  .00001815  00000+0  50714-4 0  9995
2 59794  42.9978 321.4501 0000828  67.3911 292.7033 15.40693663 21929
STARLINK-31916          
1 59795U 24093P   24272.85555417  .00022320  00000+0  54172-3 0  9990
2 59795  43.0016 321.4292 0001505 261.9885  98.0801 15.40604133 21921
